STARLINK-36122          
1 66952U 25286AD  25355.58335648 -.00058709  00000+0 -39894-3 0  9999
2 66952  53.1575   5.9969 0001035  72.5868 214.7676 15.74212626  3416
HULIANWANG DIGUI-114    
1 66953U 25287A   25354.38141962  .00000019  00000+0  30336-5 0  9995
2 66953  86.4960 343.3747 0009673 185.0352 175.0710 13.66161866  1572
HULIANWANG DIGUI-115    
1 66954U 25287B   25354.59996245  .00000016  00000+0 -97933-6 0  9996
2 66954  86.4975 343.2967 0009498 182.0064 178.1058 13.66603826  1604
HULIANWANG DIGUI-116    
1 66955U 25287C   25354.67187073  .00000120  00000+0  12369-3 0  9999
2 66955  86.4918 343.2556 0008660 174.2680 185.8579 13.67009251  1610
HULIANWANG DIGUI-117    
1 66956U 25287D   25352.62166759  .00000026  00000+0  10922-4 0  9990
2 66956  86.4971 344.0126 0007676 176.3616 183.7600 13.67770338  1332
HULIANWANG DIGUI-118    
1 66957U 25287E   25355.03488252  .00000128  00000+0  13223-3 0  9993
2 66957  86.4946 343.1304 0005472 170.9065 189.2194 13.67510110  1668
CZ-6A R/B               
1 66958U 25287F   25355.59777809  .00000085  00000+0  46632-4 0  9997
2 66958  86.5061 342.7330 0107243  75.5233 285.7811 13.94921167  1776
STARLINK-35887          
1 66959U 25288A   25355.58335648 -.01337825  00000+0 -86999-2 0  9995
2 66959  43.0007 113.0467 0001772 275.4576 112.8029 15.77608953  3250
STARLINK-35879          
1 66960U 25288B   25355.58335648 -.01346602  00000+0 -87666-2 0  9992
2 66960  43.0007 113.0416 0001591 281.9231 108.3009 15.77603884  3251
STARLINK-35761          
1 66961U 25288C   25355.58335648 -.01370547  00000+0 -89446-2 0  9996
2 66961  43.0028 113.0364 0001866 275.6621 116.5774 15.77593446  3257
STARLINK-35874          
1 66962U 25288D   25355.58335648 -.01403604  00000+0 -92214-2 0  9995
2 66962  43.0028 113.0306 0001881 274.7535 119.7345 15.77511882  3258
STARLINK-36133          
1 66963U 25288E   25355.58335648 -.01413886  00000+0 -93104-2 0  9998
2 66963  43.0028 113.0256 0001806 271.8995 124.6214 15.77482102  3250
